NORAD_CAT_ID,OBJECT_NAME,OBJECT_TYPE,EPOCH,MEAN_MOTION,ECCENTRICITY,INCLINATION,RA_OF_ASC_NODE,ARG_OF_PERICENTER,MEAN_ANOMALY,BSTAR,MEAN_MOTION_DOT,MEAN_MOTION_DDOT,TLE_LINE0,TLE_LINE1,TLE_LINE2,SEMIMAJOR_AXIS,PERIOD,APOGEE,PERIGEE,DECAYED
54093.0,STARLINK-5213,PAYLOAD,2023-01-31 08:41:34,15.08845678,0.0001133,53.2188,21.5761,88.3507,271.7615,5.2868e-05,5.54e-06,0.0,0 STARLINK-5213,1 54093U 22136AU  23031.36220975  .00000554  00000-0  52868-4 0  9995,2 54093  53.2188  21.5761 0001133  88.3507 271.7615 15.08845678 15895,6917.863,95.437,540.512,538.944,0.0
54093.0,STARLINK-5213,PAYLOAD,2023-02-01 05:21:35,15.08842888,8.41e-05,53.2177,17.711,55.3129,304.7942,5.586e-05,6.02e-06,0.0,0 STARLINK-5213,1 54093U 22136AU  23032.22333005  .00000602  00000-0  55860-4 0  9999,2 54093  53.2177  17.7110 0000841  55.3129 304.7942 15.08842888 16494,6917.872,95.437,540.318,539.155,0.0
54093.0,STARLINK-5213,PAYLOAD,2023-02-01 08:32:21,15.08842492,9.96e-05,53.2173,17.1158,74.6719,285.4384,0.00010514,1.386e-05,0.0,0 STARLINK-5213,1 54093U 22136AU  23032.35580860  .00001386  00000-0  10514-3 0  9992,2 54093  53.2173  17.1158 0000996  74.6719 285.4384 15.08842492 16043,6917.873,95.437,540.427,539.049,0.0
54093.0,STARLINK-5213,PAYLOAD,2023-02-02 03:37:00,15.08837698,0.0001253,53.2192,13.5451,95.5802,264.5333,-1.5967e-06,-3.13e-06,0.0,0 STARLINK-5213,1 54093U 22136AU  23033.15069534 -.00000313  00000-0 -15967-5 0  9991,2 54093  53.2192  13.5451 0001253  95.5802 264.5333 15.08837698 16631,6917.887,95.438,540.619,538.886,0.0
54093.0,STARLINK-5213,PAYLOAD,2023-02-02 08:23:09,15.08841005,0.0001309,53.218,12.6548,94.2973,265.8169,1.0497e-05,-1.21e-06,0.0,0 STARLINK-5213,1 54093U 22136AU  23033.34941265 -.00000121  00000-0  10497-4 0  9990,2 54093  53.2180  12.6548 0001309  94.2973 265.8169 15.08841005 16191,6917.877,95.437,540.648,538.837,0.0
54093.0,STARLINK-5213,PAYLOAD,2023-02-03 06:38:32,15.08849561,0.0001118,53.2196,8.4915,91.8836,268.2284,7.0743e-05,8.39e-06,0.0,0 STARLINK-5213,1 54093U 22136AU  23034.27676475  .00000839  00000-0  70743-4 0  9996,2 54093  53.2196   8.4915 0001118  91.8836 268.2284 15.08849561 16806,6917.851,95.437,540.49,538.943,0.0
54093.0,STARLINK-5213,PAYLOAD,2023-02-03 08:13:55,15.0885059,0.0001231,53.2197,8.1946,90.1166,269.9968,4.8472e-05,4.84e-06,0.0,0 STARLINK-5213,1 54093U 22136AU  23034.34300492  .00000484  00000-0  48472-4 0  9997,2 54093  53.2197   8.1946 0001231  90.1166 269.9968 15.08850590 16342,6917.848,95.437,540.565,538.861,0.0
54093.0,STARLINK-5213,PAYLOAD,2023-02-04 08:04:43,15.08837768,0.0001244,53.22,3.7337,85.3772,274.7362,1.9017e-05,1.5e-07,0.0,0 STARLINK-5213,1 54093U 22136AU  23035.33661640  .00000015  00000-0  19017-4 0  9995,2 54093  53.2200   3.7337 0001244  85.3772 274.7362 15.08837768 16967,6917.887,95.438,540.613,538.892,0.0
54093.0,STARLINK-5213,PAYLOAD,2023-02-05 06:20:07,15.0884633,0.0001119,53.2193,359.5722,91.2147,268.8973,-3.5128e-06,-3.44e-06,0.0,0 STARLINK-5213,1 54093U 22136AU  23036.26397360 -.00000344  00000-0 -35128-5 0  9992,2 54093  53.2193 359.5722 0001119  91.2147 268.8973 15.08846330 16632,6917.861,95.437,540.5,538.952,0.0
54093.0,STARLINK-5213,PAYLOAD,2023-02-06 06:10:54,15.08842511,0.0001202,53.2198,355.1111,77.1536,282.9591,0.00010276,1.348e-05,0.0,0 STARLINK-5213,1 54093U 22136AU  23037.25757662  .00001348  00000-0  10276-3 0  9995,2 54093  53.2198 355.1111 0001202  77.1536 282.9591 15.08842511 17258,6917.873,95.437,540.569,538.906,0.0
54093.0,STARLINK-5213,PAYLOAD,2023-02-06 07:46:17,15.08844093,0.0001187,53.2197,354.8135,77.4311,282.6814,0.00011407,1.528e-05,0.0,0 STARLINK-5213,1 54093U 22136AU  23037.32381525  .00001528  00000-0  11407-3 0  9991,2 54093  53.2197 354.8135 0001187  77.4311 282.6814 15.08844093 16795,6917.868,95.437,540.554,538.912,0.0
54093.0,STARLINK-5213,PAYLOAD,2023-02-07 06:01:40,15.08857006,0.0001309,53.2201,350.6489,59.8594,300.2527,0.00021299,3.105e-05,0.0,0 STARLINK-5213,1 54093U 22136AU  23038.25116450  .00003105  00000-0  21299-3 0  9990,2 54093  53.2201 350.6489 0001309  59.8594 300.2527 15.08857006 17405,6917.828,95.436,540.599,538.788,0.0
54093.0,STARLINK-5213,PAYLOAD,2023-02-08 05:52:27,15.08863454,0.0001041,53.2201,346.1895,94.0034,266.1077,0.00017586,2.514e-05,0.0,0 STARLINK-5213,1 54093U 22136AU  23039.24475833  .00002514  00000-0  17586-3 0  9990,2 54093  53.2201 346.1895 0001041  94.0034 266.1077 15.08863454 17559,6917.809,95.436,540.394,538.954,0.0
54093.0,STARLINK-5213,PAYLOAD,2023-02-09 05:43:15,15.08849583,0.0001259,53.2187,341.7292,86.5053,273.6083,3.9262e-05,3.37e-06,0.0,0 STARLINK-5213,1 54093U 22136AU  23040.23837077  .00000337  00000-0  39262-4 0  9990,2 54093  53.2187 341.7292 0001259  86.5053 273.6083 15.08849583 17706,6917.851,95.437,540.587,538.845,0.0
54093.0,STARLINK-5213,PAYLOAD,2023-02-09 23:12:30,15.08835047,0.0001044,53.2193,338.4602,92.1009,268.0103,-0.00015921,-2.82e-05,0.0,0 STARLINK-5213,1 54093U 22136AU  23040.96702070 -.00002820  00000-0 -15921-3 0  9990,2 54093  53.2193 338.4602 0001044  92.1009 268.0103 15.08835047 17810,6917.896,95.438,540.483,539.038,0.0
54093.0,STARLINK-5213,PAYLOAD,2023-02-10 02:23:16,15.0884798,0.000106,53.219,337.8653,100.3497,259.7615,7.3163e-05,8.77e-06,0.0,0 STARLINK-5213,1 54093U 22136AU  23041.09949522  .00000877  00000-0  73163-4 0  9991,2 54093  53.2190 337.8653 0001060 100.3497 259.7615 15.08847980 17361,6917.856,95.437,540.454,538.988,0.0
54093.0,STARLINK-5213,PAYLOAD,2023-02-10 05:34:02,15.08851265,0.0001286,53.2183,337.2687,104.0673,256.0462,0.00017655,2.524e-05,0.0,0 STARLINK-5213,1 54093U 22136AU  23041.23197382  .00002524  00000-0  17655-3 0  9990,2 54093  53.2183 337.2687 0001286 104.0673 256.0462 15.08851265 17856,6917.846,95.437,540.601,538.821,0.0
54093.0,STARLINK-5213,PAYLOAD,2023-02-11 02:14:03,15.08848217,0.0001369,53.2177,333.4022,99.1396,260.9751,0.00019937,2.887e-05,0.0,0 STARLINK-5213,1 54093U 22136AU  23042.09309664  .00002887  00000-0  19937-3 0  9990,2 54093  53.2177 333.4022 0001369  99.1396 260.9751 15.08848217 17980,6917.855,95.437,540.667,538.773,0.0
54093.0,STARLINK-5213,PAYLOAD,2023-02-11 19:43:17,15.08846493,0.0001298,53.217,330.1328,103.4855,256.6281,3.5151e-05,2.72e-06,0.0,0 STARLINK-5213,1 54093U 22136AU  23042.82173586  .00000272  00000-0  35151-4 0  9996,2 54093  53.2170 330.1328 0001298 103.4855 256.6281 15.08846493 17621,6917.861,95.437,540.623,538.828,0.0
54093.0,STARLINK-5213,PAYLOAD,2023-02-12 05:15:35,15.08862886,0.0001169,53.2173,328.3502,97.8483,262.2642,0.00025551,3.783e-05,0.0,0 STARLINK-5213,1 54093U 22136AU  23043.21916473  .00003783  00000-0  25551-3 0  9992,2 54093  53.2173 328.3502 0001169  97.8483 262.2642 15.08862886 18154,6917.81,95.436,540.484,538.867,0.0
54093.0,STARLINK-5213,PAYLOAD,2023-02-12 19:34:05,15.08834606,0.0001778,53.2173,325.6754,84.2937,275.8258,-0.00027099,-4.598e-05,0.0,0 STARLINK-5213,1 54093U 22136AU  23043.81534169 -.00004598  00000-0 -27099-3 0  9992,2 54093  53.2173 325.6754 0001778  84.2937 275.8258 15.08834606 18245,6917.897,95.438,540.992,538.532,0.0
54093.0,STARLINK-5213,PAYLOAD,2023-02-13 11:27:57,15.08832604,0.0001,53.2169,322.6983,85.7357,274.375,-0.00017904,-3.135e-05,0.0,0 STARLINK-5213,1 54093U 22136AU  23044.47774486 -.00003135  00000-0 -17904-3 0  9993,2 54093  53.2169 322.6983 0001000  85.7357 274.3750 15.08832604 17876,6917.903,95.438,540.46,539.076,0.0
54093.0,STARLINK-5213,PAYLOAD,2023-02-14 03:21:47,15.0885896,0.0001064,53.2171,319.7263,85.8164,274.295,0.00037499,5.688e-05,0.0,0 STARLINK-5213,1 54093U 22136AU  23045.14013602  .00005688  00000-0  37499-3 0  9998,2 54093  53.2171 319.7263 0001064  85.8164 274.2950 15.08858960 18442,6917.822,95.436,540.423,538.951,0.0
54093.0,STARLINK-5213,PAYLOAD,2023-02-14 11:18:44,15.08835766,0.0001809,53.217,318.24,74.5489,285.5702,-2.7282e-05,-7.22e-06,0.0,0 STARLINK-5213,1 54093U 22136AU  23045.47135096 -.00000722  00000-0 -27282-4 0  9992,2 54093  53.2170 318.2400 0001809  74.5489 285.5702 15.08835766 18494,6917.893,95.438,541.01,538.507,0.0
54093.0,STARLINK-5213,PAYLOAD,2023-02-14 17:40:17,15.08830941,0.0002138,53.2169,317.052,71.6084,288.5141,0.0001485,2.075e-05,0.0,0 STARLINK-5213,1 54093U 22136AU  23045.73631647  .00002075  00000-0  14850-3 0  9991,2 54093  53.2169 317.0520 0002138  71.6084 288.5141 15.08830941 18060,6917.908,95.438,541.252,538.294,0.0
54093.0,STARLINK-5213,PAYLOAD,2023-02-15 01:37:12,15.08844819,0.0001325,53.2173,315.5625,70.7913,289.3223,0.00023524,3.458e-05,0.0,0 STARLINK-5213,1 54093U 22136AU  23046.06750975  .00003458  00000-0  23524-3 0  9998,2 54093  53.2173 315.5625 0001325  70.7913 289.3223 15.08844819 18588,6917.866,95.437,540.647,538.814,0.0
54093.0,STARLINK-5213,PAYLOAD,2023-02-15 11:09:31,15.08844544,0.0001428,53.2176,313.7793,76.4586,283.6565,0.00016434,2.329e-05,0.0,0 STARLINK-5213,1 54093U 22136AU  23046.46495052  .00002329  00000-0  16434-3 0  9992,2 54093  53.2176 313.7793 0001428  76.4586 283.6565 15.08844544 18176,6917.866,95.437,540.719,538.744,0.0
54093.0,STARLINK-5213,PAYLOAD,2023-02-15 22:17:13,15.08855517,0.0001765,53.2158,311.7005,74.5146,285.6041,0.00025923,3.842e-05,0.0,0 STARLINK-5213,1 54093U 22136AU  23046.92862534  .00003842  00000-0  25923-3 0  9990,2 54093  53.2158 311.7005 0001765  74.5146 285.6041 15.08855517 18246,6917.833,95.437,540.919,538.477,0.0
54093.0,STARLINK-5213,PAYLOAD,2023-02-16 11:00:17,15.0885932,0.0001418,53.2155,309.3224,36.5131,323.5957,0.00013995,1.941e-05,0.0,0 STARLINK-5213,1 54093U 22136AU  23047.45853840  .00001941  00000-0  13995-3 0  9993,2 54093  53.2155 309.3224 0001418  36.5131 323.5957 15.08859320 18790,6917.821,95.436,540.667,538.705,0.0
54093.0,STARLINK-5213,PAYLOAD,2023-02-16 22:08:01,15.08825745,0.0002098,53.2163,307.2399,61.7725,298.3479,-7.2791e-05,-1.446e-05,0.0,0 STARLINK-5213,1 54093U 22136AU  23047.92224078 -.00001446  00000-0 -72791-4 0  9992,2 54093  53.2163 307.2399 0002098  61.7725 298.3479 15.08825745 18391,6917.924,95.438,541.24,538.338,0.0
